#dP2020  3 23  0  0  0.00000000      97 __u+U IGS14 FIT  IAC
## 2098  86400.00000000   900.00000000 58931 0.0000000000000
+  121   C01C03C04C05C06C07C08C09C10C11C12C13C14C16C19C20C21
+        C22C23C24C25C26C27C28C29C30C32C33C34C35C36C37C38C39
+        C40C43C44C45C46E01E02E03E04E05E07E08E09E11E12E13E14
+        E15E18E21E24E25E26E27E30E31E33E36G01G02G03G04G05G06
+        G07G08G09G10G11G12G13G14G15G16G17G18G19G20G21G22G23
+        G24G25G26G27G28G29G30G31G32J01J02J03J07R01R02R03R04
+        R05R07R08R09R11R12R13R14R15R16R17R18R19R20R21R22R23
+        R24R26  0  0  0  0  0  0  0  0  0  0  0  0  0  0  0
++         0  0  0  0  0  0  0  0  0  0  0  0  0  0  0  0  0
++         0  0  0  0  0  0  0  0  0  0  0  0  0  0  0  0  0
++         0  0  0  0  0  0  0  0  0  0  0  0  0  0  0  0  0
++         0  0  0  0  0  0  0  0  0  0  0  0  0  0  0  0  0
++         0  0  0  0  0  0  0  0  0  0  0  0  0  0  0  0  0
++         0  0  0  0  0  0  0  0  0  0  0  0  0  0  0  0  0
++         0  0  0  0  0  0  0  0  0  0  0  0  0  0  0  0  0
++         0  0  0  0  0  0  0  0  0  0  0  0  0  0  0  0  0
%c M  cc GPS ccc cccc cccc cccc cccc ccccc ccccc ccccc ccccc
%c cc cc ccc ccc cccc cccc cccc cccc ccccc ccccc ccccc ccccc
%f  1.2500000  1.025000000  0.00000000000  0.000000000000000
%f  0.0000000  0.000000000  0.00000000000  0.000000000000000
%i    0    0    0    0      0      0      0      0         0
%i    0    0    0    0      0      0      0      0         0
/* INFORMATION & ANALYSIS CENTER (IAC)            FINAL DATA
/* S/V CLOCKS ARE ALIGNED TO GNSS TIME                      
/* G:C1WC2W R:C1PC2P E:C1XC5X C:C2IC6I J:C1CC2S             
/* PCV:IGS14_2097 OL/AL:FES2004  NONE     YN ORB:CoN CLK:CoN
*  2020 03 23 10  0  0.00000000
PC01 -32294.766702  27070.886340   1008.635291    346.501581
PC03 -14786.939883  39448.038067    331.725601    150.285742
PC04 -39604.554116  14440.756722    697.441827   -178.084073
PC05  21823.088299  36025.083420   -945.537961   -171.786027
PC06 -10944.199346  21974.017812 -33878.039712    241.029057
PC07 -24168.321151  30246.223497  16282.939445    919.952976
PC08 -11210.852622  36904.320439  17504.466192   -167.641554
PC09   4397.332177  29048.795426 -29856.419095    421.311622
PC10 -10622.673563  31228.517497  26209.793855   -783.111585
PC11  17917.870757   -660.316817 -21335.380236   -257.695584
PC12  21295.515664  16129.652417  -8065.509918    336.590755
PC13  -2726.287275  42025.686882   4057.413420    339.536022
PC14  26931.369999  -7167.656137   1972.482896    225.975870
PC16  -5974.768543  24149.751038 -33950.026741   -712.761200
PC19 -22580.063278  12438.156805 -10638.387612    360.143490
PC20 -27113.279175   1250.985999   6443.395231   -912.581077
PC21  15671.052755  11073.651109 -20246.470222   -203.390993
PC22  -4791.175086  16607.228810 -21893.808615   -861.775912
PC23   5428.299375 -26916.090612  -4978.847295   -934.193097
PC24  16807.791705   -268.388685  22259.614001   -889.238800
PC25  15180.218355 -20087.585030  12006.860444   -557.887492
PC26   8827.427175  17975.769499  19440.033088    616.943623
PC27 -17738.129524 -21541.698299   -908.524739    300.094341
PC28  -3510.008575 -21938.282658 -16880.171512    291.059122
PC29 -12348.202171  10025.370838  22925.548609    204.789172
PC30 -21915.682014  -7969.326345  15347.346285    290.946583
PC32 -15740.537681 -10995.287924  20266.378726   -906.064852
PC33  22557.883684 -12564.643043  10617.477212   -899.160299
PC34  21809.166091   7586.371293 -15653.049995   -570.929242
PC35   4053.684305  21768.845268  16961.640316   -926.358397
PC36 -15708.843325  19576.635525 -12174.834317   -821.452094
PC37  -8012.839507 -18659.757136 -19120.366615   -853.681103
PC38 -10009.216179  38572.530974  13950.330869     68.276237
PC39  -4500.465860  24448.853352 -34040.268017     12.399725
PC40 -17846.665095  27184.996857  26727.812611     28.548090
PC43  12657.668336  -9842.377163 -22839.902625   -117.815848
PC44  18310.812599  21004.632174   1053.625657   -134.518889
PC45  -5396.926953  26940.945654   4938.857354     92.502114
PC46 -16808.476792    877.698997 -22260.251402    923.832819
PE01 -10477.346532 -12761.067833 -24571.399595   -820.613317
PE02  10522.545263  12709.770435  24568.796447    121.334284
PE03  21752.117127  14844.991003 -13525.485383   -279.867094
PE04 -29062.831897  -3495.801355  -4391.528097   -490.697766
PE05   1584.408631  17623.499423 -23725.761638   -394.873384
PE07  19361.508955 -10091.237651  19999.164112   -358.044442
PE08  29072.722132   3178.115787   4612.054649   6202.784129
PE09 -19177.140421  10151.436356 -20121.205248   6116.617135
PE11 -10262.614686  16439.013157  22367.546347   1877.711287
PE12 -17728.214437  -5470.011351  23077.942604   5890.446470
PE13  10253.856604 -16252.435346 -22507.093237    399.458384
PE14  24489.592049  13850.551689  -1833.901384   -950.676012
PE15  17642.711968   5169.889952 -23183.555118    873.019945
PE18 -16253.940957 -21479.418757 -10870.934344  -1048.874453
PE21   7231.550873 -23679.436547 -16225.785462   -589.471453
PE24 -21134.297688  20660.039354  -1884.464916   5545.717187
PE25  -7347.975738  23710.015733  16129.055127   -507.501798
PE26  -3155.667123 -28250.298949  -8252.608677   3386.973291
PE27  20941.107767 -20840.337183   1736.324663    256.370112
PE30  22270.385278  -5412.047366  18709.747659   4044.802441
PE31 -22293.577587   5781.932447 -18594.661195   -472.073843
PE33 -14686.694618 -23575.343760  10261.344910   -469.208560
PE36   3135.242707  28133.303145   8643.576071    582.430118
PG01 -13624.660011   9498.921451  20431.649531   -335.143492
PG02  13284.553521  14767.589747 -17025.817506   -426.814336
PG03 -23135.052078  12868.780483   1255.808610   -125.365221
PG04 -18235.584082   4428.761829 -18798.123688    -66.142423
PG05  19239.786794   3096.384627 -18266.008723     -9.592606
PG06   7247.026027  23425.930860 -10098.098445   -237.182576
PG07  -5983.330165  24023.909375  -8632.781827   -242.083432
PG08 -24009.996546  -4469.544621  10768.176280    -28.111215
PG09  -8278.994756  13026.769720 -21669.096514   -182.511091
PG10   1474.030648 -17226.062682  20181.583219   -286.561438
PG11 -17454.490266   -941.183690  19434.480921   -326.031294
PG12  24263.319835 -10052.986918   3056.363952    137.554074
PG13  22864.780817  12701.086207   4753.049813     -3.629845
PG14 -16829.443547 -18747.650742   9041.054945    -24.465745
PG15  24357.850104   1780.863755  10577.734779   -243.042862
PG16 -19418.646202  -4078.972677 -18088.711031   -138.204748
PG17   8571.940712  18833.678756  17101.113571    236.746847
PG18   9941.575881 -20208.811265 -14075.999777    129.067676
PG19  15486.074400  18943.511617  10040.563337   -181.983199
PG20  11215.870800 -20545.001889  12267.626812    527.857274
PG21   3038.578146 -25281.156475  -7215.711570    -24.000266
PG22 -23397.867754   7625.216288  10048.195477   -785.420684
PG23 -18094.481181   5570.307889 -18408.554703   -127.695666
PG24  14570.505141  -7714.687667  20563.712425    -10.714148
PG25  18891.536409 -17101.702636  -7199.147192     -7.555403
PG26 -11050.297489 -11218.784880 -21437.824780    173.127144
PG27 -23570.642194 -12624.671277    511.495594   -246.418129
PG28  -1435.064526  16606.484468  21298.609628    730.866867
PG29  10698.668700 -10423.284203 -22000.405305    -63.376381
PG30   1044.101001  26349.046881   2058.304105   -181.824293
PG31  -8553.035398 -21619.206517 -12444.393554    -31.250486
PG32 -10385.410928 -18549.828915  16084.891169    242.862038
PJ01 -32647.654480  19324.258465 -13797.498177   -339.192042
PJ02 -26453.420246  31825.472714  -3637.839006     -1.999782
PJ03 -26599.879624  21878.874206  29381.484547     -1.346520
PJ07 -25398.139211  33655.232563    -54.259764      0.084978
PR01 -20477.974763   7249.593182 -13353.549456     58.949288
PR02    -69.566475  10886.094475 -23026.651592    418.136276
PR03  17916.708299   7473.191739 -16476.316344     12.026110
PR04  25497.482795   -264.995038   -620.603531     42.974049
PR05  18634.747629  -7696.264086  15625.540893     47.268153
PR07 -18399.420884  -7318.834778  16142.335524    -34.668527
PR08 -25505.400688    145.377361    764.262814    -51.198584
PR09   3580.337370 -20999.688784 -14071.798594    123.363883
PR11 -14619.882453   6807.863071 -19739.548171    -17.680802
PR12 -14459.240502  19979.280879  -6545.855664    116.363035
PR13  -5876.342217  22196.789137  11090.345130    -36.402867
PR14   5955.838599  11223.353373  22122.256049     49.405425
PR15  14305.322180  -5995.477054  20262.295270    106.187098
PR16  13956.674267 -20383.220855   6062.391532     -2.301786
PR17  14665.288655  20384.760334  -4555.909120    311.341020
PR18  14899.261387   8359.422683 -18898.409558     29.480072
PR19   7599.306172  -7535.816639 -23150.804472    -85.123640
PR20  -5347.088567 -21294.875935 -13019.115607   -407.298125
PR21 -14846.043649 -19992.570419   5489.360060   -113.149238
PR22 -14165.385367  -6043.070810  20384.249113    -18.983941
PR23  -3240.024627  13413.543671  21447.085437    294.387125
PR24   7275.838725  21887.162055  10847.950273    -48.854185
PR26  -2812.456450 -19241.315614 -16482.071795   -402.597583
EOF
